{"fetched_at":"2026-06-01T09:26:57Z","count":10140,"tles":[{"name":"STARLINK-31779","line1":"1 59744U 24090Q   26150.95310301  .00000509  00000+0  28035-4 0  9995","line2":"2 59744  43.0005  78.7097 0000988 271.5388  88.5350 15.27575792116029","category":"Starlink"},{"name":"STARLINK-35212","line1":"1 65496U 25198E   26151.47678470  .00031135  00000+0  10588-2 0  9999","line2":"2 65496  53.1588 246.5653 0001269 125.4879 234.6240 15.30203797 41291","category":"Starlink"},{"name":"STARLINK-33783","line1":"1 63712U 25087R   26151.52213412  .00026228  00000+0  85355-3 0  9994","line2":"2 63712  53.1580 194.6670 0001129  62.5757 297.5359 15.31716307 61888","category":"Starlink"},{"name":"STARLINK-6165","line1":"1 76165C 23090AC  23185.72340278 -.00981440  00000-0 -60175-2 0  1857","line2":"2 76165  43.0003 214.6252 0001371 263.3294  78.9894 15.77301073    10","category":"Starlink"},{"name":"ELECTRON KICK STAGE R/B","line1":"1 66555U 25267B   25353.75340288  .00017365  00000+0  53717-3 0  9991","line2":"2 66555  42.0196  16.2602 0006835 110.4323 249.7249 15.33128579  4481","category":"Other"},{"name":"FENGYUN 1C DEB","line1":"1 31619U 99025BZZ 26104.31726380  .00024554  00000+0  18231-2 0  9994","line2":"2 31619  99.0646 320.6498 0066956 258.4020 100.9678 15.01233198653188","category":"Weather"},{"name":"STARLINK-2305","line1":"1 47989U 21024N   23362.00504856  .00009117  00000+0  62979-3 0  9993","line2":"2 47989  53.0546 250.0233 0001171  82.2828 277.8294 15.06421334154319","category":"Starlink"},{"name":"STARLINK-30324","line1":"1 57640U 23122J   26150.94269448 -.00006592  00000+0 -23001-3 0  9994","line2":"2 57640  43.0039 348.2257 0001783 264.5694  95.4955 15.27609180154779","category":"Starlink"},{"name":"COSMOS 637","line1":"1 07229U 74017A   26104.92275381 -.00000164  00000+0  00000+0 0  9999","line2":"2 07229   0.9872 254.8349 0038844  75.6661 101.2165  1.00786114121560","category":"Other"},{"name":"CZ-3B DEB","line1":"1 40842U 11077X   26104.64111691  .00000052  00000+0  19640-2 0  9994","line2":"2 40842  22.7420  49.0866 7548992  65.5929 352.5495  1.76768957 79061","category":"Other"},{"name":"STARLINK-4587","line1":"1 53635U 22104AZ  26030.33576569  .01622835  24971-2  92736-3 0  9998","line2":"2 53635  53.2105  14.9459 0001869 115.6152 244.5081 16.19026528190731","category":"Starlink"},{"name":"STARLINK-32431","line1":"1 61256U 24175P   26151.50002315  .00066046  00000+0  19519-2 0  9998","line2":"2 61256  53.1593 169.3490 0001490  77.9676 255.5543 15.34348623  5852","category":"Starlink"},{"name":"2025-313M","line1":"1 67259U 25313M   26151.18305833  .00018863  00000+0  77543-3 0  9993","line2":"2 67259  97.3976 226.3181 0015534  65.7127 294.5731 15.24104745 23370","category":"Other"},{"name":"COSMOS 2251 DEB","line1":"1 34737U 93036ZF  23178.24043413  .00156090  00000+0  81515-2 0  9999","line2":"2 34737  74.0232 230.1356 0017526 334.1700  93.0694 15.15001658756633","category":"Other"},{"name":"STARLINK-3281","line1":"1 50183U 21125AD  26151.46600809 -.00003767  00000+0 -21857-3 0  9996","line2":"2 50183  53.1923 237.5100 0001767 125.3986 234.7171 15.08860133249145","category":"Starlink"},{"name":"STARLINK-31101","line1":"1 58737U 24005K   26151.26781428  .00000495  00000+0  27533-4 0  9995","line2":"2 58737  43.0035 113.3306 0001723 269.2973  90.7681 15.27571835133063","category":"Starlink"},{"name":"STARLINK-34514","line1":"1 64416U 25129E   26151.48958948  .00002388  00000+0  20785-3 0  9995","line2":"2 64416  70.0008 225.5413 0003606 267.6658  92.4088 14.98335172 53692","category":"Starlink"},{"name":"USA 164 (MILSTAR-2 3)","line1":"1 27168U 02001A   26151.29111181  .00000102  00000+0  00000+0 0  9997","line2":"2 27168  11.1599  22.0122 0099925   7.9803 342.5174  1.00271876 32780","category":"Military"},{"name":"TIANYI-16 (TY-16)","line1":"1 44840U 19087C   24084.82108596  .07541563  25322-5  15345-2 0  9992","line2":"2 44840  97.4752 274.9443 0008066 277.9610  82.0769 16.31237804240138","category":"Other"},{"name":"STARLINK-5646","line1":"1 55461U 23015N   26151.54524172  .00000372  00000+0  23038-4 0  9998","line2":"2 55461  43.0018 220.8047 0001552 266.9303  93.1371 15.27576829183394","category":"Starlink"},{"name":"FENGYUN 1C DEB","line1":"1 30744U 99025ATE 26104.44039832  .00035128  00000+0  23146-2 0  9995","line2":"2 30744  98.7316 269.9176 0011111 246.0522 139.9807 15.07366112999253","category":"Weather"},{"name":"COSMOS 2251 DEB","line1":"1 47048U 93036BXC 26101.26022461  .00003320  00000+0  70903-3 0  9996","line2":"2 47048  73.9756  92.7654 0135057 251.4631 127.5752 14.53708536614268","category":"Other"},{"name":"STARLINK-5973","line1":"1 56916U 23083AS  26150.84664965  .00000446  00000+0  25746-4 0  9996","line2":"2 56916  43.0003 326.6408 0000895 255.2572 104.8181 15.27573876164339","category":"Starlink"},{"name":"FLOCK 4G-21","line1":"1 62651U 25009AU  26151.22275336  .00018361  00000+0  62799-3 0  9995","line2":"2 62651  97.3998 233.7583 0002074  54.4236 305.7197 15.30309008 76368","category":"Other"},{"name":"STARLINK-37150","line1":"1 68315U 26057X   26150.82693355 -.01021311  00000+0 -81595-2 0  9998","line2":"2 68315  97.2850 277.3278 0003082  44.3943 315.7568 15.73451028 11218","category":"Starlink"},{"name":"COSMOS 2251 DEB","line1":"1 37960U 93036BPK 26104.88624546  .00000665  00000+0  30603-3 0  9993","line2":"2 37960  74.0609 330.9847 0246069 320.1543  38.1748 14.08365093791391","category":"Other"},{"name":"LEMUR-2-HANCOM-1","line1":"1 52740U 22057J   23361.83745952  .00048011  00000+0  12769-2 0  9992","line2":"2 52740  97.5650 122.8154 0006809  35.3602 324.8093 15.38057939 88327","category":"Other"},{"name":"GEESAT-5 11","line1":"1 65560U 25201L   26151.10375131  .00002634  00000+0  33905-3 0  9995","line2":"2 65560  49.9856 118.1175 0009090 278.2020  81.7887 14.84110588 39289","category":"Other"},{"name":"FENGYUN 1C DEB","line1":"1 31727U 99025CEA 26103.31677557  .00003052  00000+0  10004-2 0  9994","line2":"2 31727  98.8664 224.2146 0028538 343.7697  42.6775 14.38930352734169","category":"Weather"},{"name":"ONEWEB-0168","line1":"1 48068U 21025AC  26151.45895801  .00000353  00000+0  93284-3 0  9990","line2":"2 48068  87.8949 323.5513 0001799 100.3465 259.7866 13.13469579251368","category":"Other"},{"name":"STARLINK-30338","line1":"1 57718U 23129W   26151.03953277  .00000034  00000+0  10784-4 0  9996","line2":"2 57718  43.0058  13.1077 0001921 267.0242  93.0390 15.27569453153274","category":"Starlink"},{"name":"FENGYUN 2E DEB","line1":"1 40987U 08066D   26058.62600715  .00000055  00000+0  00000+0 0  9994","line2":"2 40987   9.9514  45.6569 0178156  15.6248 344.9936  1.00280833 61366","category":"Weather"},{"name":"STARLINK-4627","line1":"1 53711U 22107M   26151.46966557 -.00005116  00000+0 -30331-3 0  9999","line2":"2 53711  53.1931 237.3019 0002033 134.4604 225.6555 15.08863983206971","category":"Starlink"},{"name":"QIANFAN-19","line1":"1 61552U 24185A   26151.51849301  .00000520  00000+0  26383-3 0  9996","line2":"2 61552  88.9851  58.4766 0008935 109.9456 250.2694 14.14463499 93662","category":"Other"},{"name":"STARLINK-36497","line1":"1 67323U 26002U   26150.58543727  .00018651  00000+0  68538-3 0  9999","line2":"2 67323  43.0036 222.7742 0002237 257.1793 102.8809 15.27588702 23663","category":"Starlink"},{"name":"IRIDIUM 33 DEB","line1":"1 34890U 97051MS  23178.60536099  .00093886  00000+0  89541-2 0  9997","line2":"2 34890  86.2891  26.0230 0034848 162.6930 197.5495 14.92417303749449","category":"Other"},{"name":"ONEWEB-0432","line1":"1 50502U 21132AK  26151.51566874 -.00001824  00000+0 -46605-2 0  9997","line2":"2 50502  87.9162 338.7475 0002122 113.7889 246.3466 13.18699702219388","category":"Other"},{"name":"STARLINK-31188","line1":"1 58804U 24012T   26151.13490016 -.00000971  00000+0 -25746-4 0  9999","line2":"2 58804  43.0065  59.7482 0000958 302.1213  57.9546 15.27592251133848","category":"Starlink"},{"name":"STARLINK-34526","line1":"1 64481U 25133K   26151.26032478  .00029031  00000+0  98747-3 0  9996","line2":"2 64481  53.1589  93.0325 0000344  95.6298 264.4742 15.30233226 53721","category":"Starlink"},{"name":"GSAT-2","line1":"1 27807U 03018A   26104.94936897  .00000114  00000+0  00000+0 0  9998","line2":"2 27807  11.0555  42.2327 0012163 342.4471 191.4196  0.99849125 83808","category":"Other"},{"name":"STARLINK-1108","line1":"1 44944U 20001AG  23362.14879989  .00001915  00000+0  14741-3 0  9994","line2":"2 44944  53.0556 329.3680 0001567 106.9404 253.1757 15.06407596219167","category":"Starlink"},{"name":"STARLINK-5767","line1":"1 55586U 23020T   26151.35999632  .00000166  00000+0  15575-4 0  9996","line2":"2 55586  43.0046 258.5416 0002004 281.0990  78.9636 15.27572942181557","category":"Starlink"},{"name":"FENGYUN 1C DEB","line1":"1 30858U 99025AWU 26104.80556109  .00000403  00000+0  21732-3 0  9990","line2":"2 30858  98.7784 166.1819 0031274 117.1447 314.8241 14.17988134987242","category":"Weather"},{"name":"STARLINK-1927","line1":"1 47181U 20088BM  23361.92937211  .00003925  00000+0  13755-3 0  9990","line2":"2 47181  53.0763 254.3328 0004820 118.1777 241.9711 15.31856363171566","category":"Starlink"},{"name":"SPACEBEE-171","line1":"1 56980U 23084BA  23362.26400568  .00026395  00000+0  11303-2 0  9996","line2":"2 56980  97.5280 117.5564 0012513 241.4939 118.5037 15.22695916 30097","category":"Other"},{"name":"STARLINK-36296","line1":"1 68380U 26063A   26151.34439475  .00385941  00000+0  19378-2 0  9995","line2":"2 68380  97.2848 295.5315 0001401 272.4686  87.6421 15.80702197 10678","category":"Starlink"},{"name":"FENGYUN 1C DEB","line1":"1 38121U 99025EPS 26087.72267777  .00003840  00000+0  14114-2 0  9995","line2":"2 38121  99.1277 247.8651 0205105 184.5521 175.3795 14.22305871854269","category":"Weather"},{"name":"STARLINK-4188","line1":"1 52843U 22062P   26150.92464542 -.00008068  00000+0 -49020-3 0  9995","line2":"2 52843  53.1974  24.9444 0001499 112.6443 247.4708 15.08780695218208","category":"Starlink"}]}